     3.02           N: GNSS NAV DATA    C: BDS              RINEX VERSION / TYPE
Assistant 1.0                           20200827 161059 LCL PGM / RUN BY / DATE 
    04                                                      LEAP SECONDS        
                                                            END OF HEADER       
C13 2020 08 27 07 00 00 0.616707606241D-03 0.191464621935D-10 0.000000000000D+00
     0.100000000000D+01-0.616812500000D+03 0.798247535928D-09-0.148720359463D+01
    -0.201966613531D-04 0.401556270663D-02 0.555673614144D-05 0.649315524864D+04
     0.370800000000D+06 0.945292413235D-07 0.153627054873D+01-0.198371708393D-06
     0.996666759331D+00 0.984687500000D+02-0.277401505716D+01-0.204151360866D-08
    -0.236438420038D-09 0.000000000000D+00 0.764000000000D+03 0.000000000000D+00
     0.200000000000D+01 0.000000000000D+00-0.920000000000D-08 0.240000000000D-08
     0.373860000000D+06 0.000000000000D+00 0.000000000000D+00 0.000000000000D+00
C16 2020 08 27 07 00 00-0.589042669162D-03 0.770938868300D-12 0.000000000000D+00
     0.100000000000D+01 0.310625000000D+02 0.160828127708D-08 0.269267353502D+01
     0.131363049150D-05 0.309785222635D-02 0.945292413235D-05 0.649269162941D+04
     0.370800000000D+06 0.358559191227D-07-0.262026118792D+01 0.307336449623D-07
     0.961168076371D+00-0.484687500000D+02-0.252918720241D+01-0.194329523176D-08
     0.247153152064D-09 0.000000000000D+00 0.764000000000D+03 0.000000000000D+00
     0.200000000000D+01 0.000000000000D+00-0.240000000000D-08 0.430000000000D-08
     0.371970000000D+06 0.000000000000D+00 0.000000000000D+00 0.000000000000D+00
C16 2020 08 25 08 00 00-0.589174102060D-03 0.918376485970D-12 0.000000000000D+00
     0.100000000000D+01-0.937187500000D+02 0.137362864572D-08 0.290622756301D+01
    -0.289967283607D-05 0.310284434818D-02 0.165086239576D-04 0.649269890213D+04
     0.201600000000D+06 0.177416950464D-06-0.261991282470D+01-0.838190317154D-08
     0.961214190475D+00-0.265828125000D+03-0.251882441154D+01-0.194079512762D-08
    -0.541093967307D-09 0.000000000000D+00 0.764000000000D+03 0.000000000000D+00
     0.200000000000D+01 0.000000000000D+00-0.240000000000D-08 0.430000000000D-08
     0.201600000000D+06 0.000000000000D+00 0.000000000000D+00 0.000000000000D+00
C19 2020 08 27 07 00 00 0.524439499713D-03 0.136477495971D-10 0.000000000000D+00
     0.100000000000D+01-0.297656250000D+02 0.361265048139D-08 0.155150925434D+01
    -0.135693699121D-05 0.720121548511D-03 0.912277027965D-05 0.528261915779D+04
     0.370800000000D+06 0.498257577419D-07 0.282913005985D+01-0.149011611938D-07
     0.964480866065D+00 0.177234375000D+03-0.102866091524D+01-0.657134515147D-08
     0.441804117201D-09 0.000000000000D+00 0.764000000000D+03 0.000000000000D+00
     0.200000000000D+01 0.000000000000D+00 0.123000000000D-07 0.123000000000D-07
     0.373920000000D+06 0.100000000000D+01 0.000000000000D+00 0.000000000000D+00
C20 2020 08 27 07 00 00-0.837834551930D-03-0.209343653523D-11 0.000000000000D+00
     0.100000000000D+01-0.288281250000D+02 0.365086635895D-08 0.179591299012D+01
    -0.131828710437D-05 0.718801748008D-03 0.911531969905D-05 0.528262375832D+04
     0.370800000000D+06 0.325962901115D-08 0.282975010743D+01-0.232830643654D-08
     0.964479344630D+00 0.178203125000D+03-0.508463064785D+00-0.657384525561D-08
     0.413588656199D-09 0.000000000000D+00 0.764000000000D+03 0.000000000000D+00
     0.200000000000D+01 0.000000000000D+00 0.231000000000D-07 0.231000000000D-07
     0.370800000000D+06 0.100000000000D+01 0.000000000000D+00 0.000000000000D+00
C23 2020 08 27 07 00 00-0.852219644003D-03-0.531130694981D-11 0.000000000000D+00
     0.100000000000D+01 0.649375000000D+02 0.398980904870D-08 0.255572706429D+01
     0.308360904455D-05 0.449800281785D-03 0.958889722824D-05 0.528262567139D+04
     0.370800000000D+06 0.107102096081D-07-0.134423110540D+01-0.651925802231D-07
     0.951416129866D+00 0.165593750000D+03-0.176789598035D+01-0.677742516410D-08
    -0.325727853587D-09 0.000000000000D+00 0.764000000000D+03 0.000000000000D+00
     0.200000000000D+01 0.000000000000D+00 0.253000000000D-07 0.253000000000D-07
     0.372480000000D+06 0.100000000000D+01 0.000000000000D+00 0.000000000000D+00
C35 2020 08 27 07 00 00-0.682875164784D-03 0.180557790941D-10 0.000000000000D+00
     0.100000000000D+01-0.131406250000D+02 0.392480634108D-08 0.157061672873D+01
    -0.709202140570D-06 0.540568842553D-03 0.197999179363D-05 0.528261592865D+04
     0.370800000000D+06 0.195577740669D-07 0.723416490961D+00 0.214204192162D-07
     0.963544617512D+00 0.322218750000D+03 0.268209375974D+00-0.709422407434D-08
    -0.860750139413D-10 0.000000000000D+00 0.764000000000D+03 0.000000000000D+00
     0.200000000000D+01 0.000000000000D+00-0.230000000000D-08-0.230000000000D-08
     0.373200000000D+06 0.100000000000D+01 0.000000000000D+00 0.000000000000D+00
C29 2020 08 27 07 00 00 0.275511294603D-03 0.523669996255D-11 0.000000000000D+00
     0.100000000000D+01-0.165781250000D+02 0.388373320165D-08 0.732677906404D+00
    -0.103469938040D-05 0.273178913631D-03 0.197486951947D-05 0.528261729813D+04
     0.370800000000D+06 0.395812094212D-07 0.719662741185D+00 0.409781932831D-07
     0.965427286287D+00 0.324906250000D+03 0.188047954296D+01-0.709636702074D-08
    -0.161792453591D-09 0.000000000000D+00 0.764000000000D+03 0.000000000000D+00
     0.200000000000D+01 0.000000000000D+00 0.100000000000D-09 0.100000000000D-09
     0.370800000000D+06 0.100000000000D+01 0.000000000000D+00 0.000000000000D+00
C32 2020 08 27 07 00 00-0.890651019290D-03-0.661692922677D-11 0.000000000000D+00
     0.100000000000D+01-0.284375000000D+02 0.371622622431D-08 0.302548729272D+01
    -0.142585486174D-05 0.379848759621D-03 0.915303826332D-05 0.528261967278D+04
     0.370800000000D+06 0.512227416039D-07 0.282416799386D+01-0.558793544769D-08
     0.963129666651D+00 0.175968750000D+03-0.932332613681D+00-0.663527638589D-08
     0.425374861428D-09 0.000000000000D+00 0.764000000000D+03 0.000000000000D+00
     0.200000000000D+01 0.000000000000D+00-0.910000000000D-08-0.910000000000D-08
     0.373770000000D+06 0.100000000000D+01 0.000000000000D+00 0.000000000000D+00
C37 2020 08 27 07 00 00-0.913632684387D-03-0.142064138231D-10 0.000000000000D+00
     0.100000000000D+01 0.623437500000D+02 0.400516683127D-08 0.132749190666D+01
     0.311434268951D-05 0.846412265673D-03 0.979891046882D-05 0.528262265015D+04
     0.370800000000D+06 0.279396772385D-08-0.134723423191D+01-0.488944351673D-07
     0.952817895044D+00 0.161718750000D+03-0.131528455749D+01-0.674885254537D-08
    -0.320013329840D-09 0.000000000000D+00 0.764000000000D+03 0.000000000000D+00
     0.200000000000D+01 0.000000000000D+00-0.130000000000D-07-0.130000000000D-07
     0.373770000000D+06 0.100000000000D+01 0.000000000000D+00 0.000000000000D+00
C27 2020 08 27 03 00 00 0.388521817513D-03 0.655653309423D-11 0.000000000000D+00
     0.100000000000D+01-0.244531250000D+02 0.380873007747D-08 0.106052680103D+01
    -0.131968408823D-05 0.614118180238D-03 0.240094959736D-05 0.528261665344D+04
     0.356400000000D+06 0.954605638981D-07 0.758044251974D+00-0.516884028912D-07
     0.966364782709D+00 0.320140625000D+03 0.117246065977D+01-0.704457914928D-08
    -0.151077721565D-09 0.000000000000D+00 0.764000000000D+03 0.000000000000D+00
     0.200000000000D+01 0.000000000000D+00-0.440000000000D-08-0.440000000000D-08
     0.356400000000D+06 0.100000000000D+01 0.000000000000D+00 0.000000000000D+00
C06 2020 08 27 07 00 00 0.221583410166D-03 0.163229429972D-10 0.000000000000D+00
     0.100000000000D+01 0.296250000000D+02 0.170971407360D-08 0.246902907638D+01
     0.121258199215D-05 0.991647550836D-02 0.939704477787D-05 0.649288564682D+04
     0.370800000000D+06 0.358559191227D-07-0.260777811819D+01 0.121071934700D-07
     0.945765079209D+00-0.514218750000D+02-0.218874815392D+01-0.198472552893D-08
     0.214651798252D-09 0.000000000000D+00 0.764000000000D+03 0.000000000000D+00
     0.200000000000D+01 0.000000000000D+00 0.860000000000D-08-0.190000000000D-08
     0.373860000000D+06 0.000000000000D+00 0.000000000000D+00 0.000000000000D+00
C08 2020 08 27 07 00 00-0.477654859424D-03-0.290008017600D-10 0.000000000000D+00
     0.100000000000D+01-0.718453125000D+03 0.523236080597D-09-0.106208569824D+01
    -0.237035565078D-04 0.503034261055D-02 0.650295987725D-05 0.649315909004D+04
     0.370800000000D+06 0.185333192348D-06 0.155580049192D+01-0.689178705215D-07
     0.103557965902D+01 0.780781250000D+02-0.280811142342D+01-0.202794161477D-08
    -0.297512392585D-09 0.000000000000D+00 0.764000000000D+03 0.000000000000D+00
     0.200000000000D+01 0.000000000000D+00 0.113000000000D-07-0.700000000000D-09
     0.372120000000D+06 0.000000000000D+00 0.000000000000D+00 0.000000000000D+00
C16 2020 08 27 07 00 00-0.589042669162D-03 0.770938868300D-12 0.000000000000D+00
     0.100000000000D+01 0.310625000000D+02 0.160828127708D-08 0.269267353502D+01
     0.131363049150D-05 0.309785222635D-02 0.945292413235D-05 0.649269162941D+04
     0.370800000000D+06 0.358559191227D-07-0.262026118792D+01 0.307336449623D-07
     0.961168076371D+00-0.484687500000D+02-0.252918720241D+01-0.194329523176D-08
     0.247153152064D-09 0.000000000000D+00 0.764000000000D+03 0.000000000000D+00
     0.200000000000D+01 0.000000000000D+00-0.240000000000D-08 0.430000000000D-08
     0.371970000000D+06 0.000000000000D+00 0.000000000000D+00 0.000000000000D+00
